[{"OBJECT_NAME":"FLOCK 4Q-15","OBJECT_ID":"2023-174BR","EPOCH":"2026-03-02T18:47:22.199712","MEAN_MOTION":15.58379983,"ECCENTRICITY":0.0005299,"INCLINATION":97.3925,"RA_OF_ASC_NODE":152.3916,"ARG_OF_PERICENTER":170.7705,"MEAN_ANOMALY":189.3649,"EPHEMERIS_TYPE":0,"CLASSIFICATION_TYPE":"U","NORAD_CAT_ID":58319,"ELEMENT_SET_NO":999,"REV_AT_EPOCH":12939,"BSTAR":0.0016392,"MEAN_MOTION_DOT":0.00126251,"MEAN_MOTION_DDOT":0},{"OBJECT_NAME":"FLOCK 4Q-2","OBJECT_ID":"2023-174BS","EPOCH":"2026-03-02T19:26:31.224768","MEAN_MOTION":15.44577198,"ECCENTRICITY":0.000797,"INCLINATION":97.3881,"RA_OF_ASC_NODE":148.1027,"ARG_OF_PERICENTER":160.0327,"MEAN_ANOMALY":200.1235,"EPHEMERIS_TYPE":0,"CLASSIFICATION_TYPE":"U","NORAD_CAT_ID":58320,"ELEMENT_SET_NO":999,"REV_AT_EPOCH":12915,"BSTAR":0.00058711,"MEAN_MOTION_DOT":0.00027286,"MEAN_MOTION_DDOT":0},{"OBJECT_NAME":"FLOCK 4Q-9","OBJECT_ID":"2023-174BU","EPOCH":"2026-03-02T18:18:18.270144","MEAN_MOTION":15.44225036,"ECCENTRICITY":0.0008087,"INCLINATION":97.3917,"RA_OF_ASC_NODE":148.0983,"ARG_OF_PERICENTER":161.0519,"MEAN_ANOMALY":199.1032,"EPHEMERIS_TYPE":0,"CLASSIFICATION_TYPE":"U","NORAD_CAT_ID":58322,"ELEMENT_SET_NO":999,"REV_AT_EPOCH":12913,"BSTAR":0.00062047,"MEAN_MOTION_DOT":0.00028504,"MEAN_MOTION_DDOT":0},{"OBJECT_NAME":"FLOCK 4Q-4","OBJECT_ID":"2023-174BZ","EPOCH":"2026-03-02T18:18:08.105184","MEAN_MOTION":15.43867657,"ECCENTRICITY":0.0007485,"INCLINATION":97.3874,"RA_OF_ASC_NODE":147.4791,"ARG_OF_PERICENTER":178.1069,"MEAN_ANOMALY":182.0209,"EPHEMERIS_TYPE":0,"CLASSIFICATION_TYPE":"U","NORAD_CAT_ID":58327,"ELEMENT_SET_NO":999,"REV_AT_EPOCH":12911,"BSTAR":0.00058401,"MEAN_MOTION_DOT":0.00026491,"MEAN_MOTION_DDOT":0},{"OBJECT_NAME":"FLOCK 4Q-13","OBJECT_ID":"2023-174CA","EPOCH":"2026-03-02T17:51:35.239104","MEAN_MOTION":15.46481836,"ECCENTRICITY":0.0007495,"INCLINATION":97.4032,"RA_OF_ASC_NODE":149.8367,"ARG_OF_PERICENTER":173.1794,"MEAN_ANOMALY":186.9559,"EPHEMERIS_TYPE":0,"CLASSIFICATION_TYPE":"U","NORAD_CAT_ID":58328,"ELEMENT_SET_NO":999,"REV_AT_EPOCH":12919,"BSTAR":0.00062439,"MEAN_MOTION_DOT":0.00030984,"MEAN_MOTION_DDOT":0},{"OBJECT_NAME":"FLOCK 4Q-21","OBJECT_ID":"2023-174CB","EPOCH":"2026-03-02T18:19:07.068864","MEAN_MOTION":15.56584117,"ECCENTRICITY":0.0005792,"INCLINATION":97.3942,"RA_OF_ASC_NODE":152.8373,"ARG_OF_PERICENTER":178.6264,"MEAN_ANOMALY":181.5007,"EPHEMERIS_TYPE":0,"CLASSIFICATION_TYPE":"U","NORAD_CAT_ID":58329,"ELEMENT_SET_NO":999,"REV_AT_EPOCH":12941,"BSTAR":0.00074665,"MEAN_MOTION_DOT":0.00053258,"MEAN_MOTION_DDOT":0},{"OBJECT_NAME":"FLOCK 4BE-18","OBJECT_ID":"2024-149N","EPOCH":"2026-03-02T18:45:16.338240","MEAN_MOTION":15.3793627,"ECCENTRICITY":0.0002998,"INCLINATION":97.3791,"RA_OF_ASC_NODE":144.6731,"ARG_OF_PERICENTER":270.2606,"MEAN_ANOMALY":89.8296,"EPHEMERIS_TYPE":0,"CLASSIFICATION_TYPE":"U","NORAD_CAT_ID":60480,"ELEMENT_SET_NO":999,"REV_AT_EPOCH":8593,"BSTAR":0.00061602,"MEAN_MOTION_DOT":0.00022941,"MEAN_MOTION_DDOT":0},{"OBJECT_NAME":"FLOCK 4BE-7","OBJECT_ID":"2024-149P","EPOCH":"2026-03-02T18:53:15.389952","MEAN_MOTION":15.35990256,"ECCENTRICITY":0.0001955,"INCLINATION":97.3822,"RA_OF_ASC_NODE":144.2841,"ARG_OF_PERICENTER":267.243,"MEAN_ANOMALY":92.859,"EPHEMERIS_TYPE":0,"CLASSIFICATION_TYPE":"U","NORAD_CAT_ID":60481,"ELEMENT_SET_NO":999,"REV_AT_EPOCH":8589,"BSTAR":0.00052524,"MEAN_MOTION_DOT":0.00018347,"MEAN_MOTION_DDOT":0},{"OBJECT_NAME":"FLOCK 4BE-26","OBJECT_ID":"2024-149S","EPOCH":"2026-03-02T18:06:29.070432","MEAN_MOTION":15.42741649,"ECCENTRICITY":0.0005658,"INCLINATION":97.3777,"RA_OF_ASC_NODE":144.5142,"ARG_OF_PERICENTER":260.8103,"MEAN_ANOMALY":99.2505,"EPHEMERIS_TYPE":0,"CLASSIFICATION_TYPE":"U","NORAD_CAT_ID":60484,"ELEMENT_SET_NO":999,"REV_AT_EPOCH":8592,"BSTAR":0.0022086,"MEAN_MOTION_DOT":0.00097548,"MEAN_MOTION_DDOT":0},{"OBJECT_NAME":"FLOCK 4BE-36","OBJECT_ID":"2024-149U","EPOCH":"2026-03-02T17:59:05.568000","MEAN_MOTION":15.3878781,"ECCENTRICITY":0.0002719,"INCLINATION":97.3801,"RA_OF_ASC_NODE":145.1771,"ARG_OF_PERICENTER":285.5509,"MEAN_ANOMALY":74.5436,"EPHEMERIS_TYPE":0,"CLASSIFICATION_TYPE":"U","NORAD_CAT_ID":60486,"ELEMENT_SET_NO":999,"REV_AT_EPOCH":8596,"BSTAR":0.00061819,"MEAN_MOTION_DOT":0.0002367,"MEAN_MOTION_DDOT":0},{"OBJECT_NAME":"FLOCK 4BE-25","OBJECT_ID":"2024-149V","EPOCH":"2026-03-02T19:11:31.171776","MEAN_MOTION":15.35725738,"ECCENTRICITY":0.0001123,"INCLINATION":97.3857,"RA_OF_ASC_NODE":144.4455,"ARG_OF_PERICENTER":251.9821,"MEAN_ANOMALY":108.1301,"EPHEMERIS_TYPE":0,"CLASSIFICATION_TYPE":"U","NORAD_CAT_ID":60487,"ELEMENT_SET_NO":999,"REV_AT_EPOCH":8589,"BSTAR":0.00053028,"MEAN_MOTION_DOT":0.00018367,"MEAN_MOTION_DDOT":0},{"OBJECT_NAME":"FLOCK 4BE-31","OBJECT_ID":"2024-149W","EPOCH":"2026-03-02T18:53:04.659936","MEAN_MOTION":15.39562808,"ECCENTRICITY":0.000162,"INCLINATION":97.3857,"RA_OF_ASC_NODE":145.824,"ARG_OF_PERICENTER":279.4063,"MEAN_ANOMALY":80.6999,"EPHEMERIS_TYPE":0,"CLASSIFICATION_TYPE":"U","NORAD_CAT_ID":60488,"ELEMENT_SET_NO":999,"REV_AT_EPOCH":8598,"BSTAR":0.00068808,"MEAN_MOTION_DOT":0.00027041,"MEAN_MOTION_DDOT":0},{"OBJECT_NAME":"FLOCK 4BE-20","OBJECT_ID":"2024-149X","EPOCH":"2026-03-02T18:35:29.251968","MEAN_MOTION":15.35013054,"ECCENTRICITY":0.0002331,"INCLINATION":97.3764,"RA_OF_ASC_NODE":143.5656,"ARG_OF_PERICENTER":276.9815,"MEAN_ANOMALY":83.1163,"EPHEMERIS_TYPE":0,"CLASSIFICATION_TYPE":"U","NORAD_CAT_ID":60489,"ELEMENT_SET_NO":999,"REV_AT_EPOCH":8587,"BSTAR":0.00048649,"MEAN_MOTION_DOT":0.00016462,"MEAN_MOTION_DDOT":0},{"OBJECT_NAME":"FLOCK 4BE-23","OBJECT_ID":"2024-149Y","EPOCH":"2026-03-02T17:45:12.398112","MEAN_MOTION":15.34652525,"ECCENTRICITY":0.0002046,"INCLINATION":97.3843,"RA_OF_ASC_NODE":143.8489,"ARG_OF_PERICENTER":292.8598,"MEAN_ANOMALY":67.2429,"EPHEMERIS_TYPE":0,"CLASSIFICATION_TYPE":"U","NORAD_CAT_ID":60490,"ELEMENT_SET_NO":999,"REV_AT_EPOCH":8585,"BSTAR":0.00048708,"MEAN_MOTION_DOT":0.00016294,"MEAN_MOTION_DDOT":0},{"OBJECT_NAME":"FLOCK 4BE-15","OBJECT_ID":"2024-149Z","EPOCH":"2026-03-02T18:09:08.443872","MEAN_MOTION":15.39088622,"ECCENTRICITY":0.0002677,"INCLINATION":97.3781,"RA_OF_ASC_NODE":144.8736,"ARG_OF_PERICENTER":339.4903,"MEAN_ANOMALY":20.6235,"EPHEMERIS_TYPE":0,"CLASSIFICATION_TYPE":"U","NORAD_CAT_ID":60491,"ELEMENT_SET_NO":999,"REV_AT_EPOCH":8595,"BSTAR":0.0017066,"MEAN_MOTION_DOT":0.00066503,"MEAN_MOTION_DDOT":0},{"OBJECT_NAME":"FLOCK 4BE-17","OBJECT_ID":"2024-149AA","EPOCH":"2026-03-02T18:59:37.441248","MEAN_MOTION":15.36349265,"ECCENTRICITY":0.0001959,"INCLINATION":97.3838,"RA_OF_ASC_NODE":144.563,"ARG_OF_PERICENTER":267.2889,"MEAN_ANOMALY":92.8131,"EPHEMERIS_TYPE":0,"CLASSIFICATION_TYPE":"U","NORAD_CAT_ID":60492,"ELEMENT_SET_NO":999,"REV_AT_EPOCH":8590,"BSTAR":0.00055931,"MEAN_MOTION_DOT":0.00019772,"MEAN_MOTION_DDOT":0},{"OBJECT_NAME":"FLOCK 4BE-22","OBJECT_ID":"2024-149AC","EPOCH":"2026-03-02T17:32:57.268032","MEAN_MOTION":15.37386667,"ECCENTRICITY":0.0002642,"INCLINATION":97.3794,"RA_OF_ASC_NODE":144.547,"ARG_OF_PERICENTER":293.4557,"MEAN_ANOMALY":66.641,"EPHEMERIS_TYPE":0,"CLASSIFICATION_TYPE":"U","NORAD_CAT_ID":60494,"ELEMENT_SET_NO":999,"REV_AT_EPOCH":8592,"BSTAR":0.00060878,"MEAN_MOTION_DOT":0.00022268,"MEAN_MOTION_DDOT":0}]
